1 44972U 20001BL  22365.37936696  .00003592  00000-0  25975-3 0  9996
2 44972  53.0528 133.4149 0001401  83.8653 276.2495 15.06422223164929
1 44972U 20001BL  22365.64475760  .00006770  00000-0  47274-3 0  9993
2 44972  53.0527 132.2232 0001421  85.1237 274.9914 15.06418724164969
1 44972U 20001BL  22365.77745315  .00001588  00000-0  12544-3 0  9997
2 44972  53.0528 131.6278 0001334  80.6583 279.4557 15.06409502164989
1 44972U 20001BL  22365.84379913  .00001452  00000-0  11632-3 0  9999
2 44972  53.0528 131.3298 0001331  80.6790 279.4349 15.06410048164992
1 44972U 20001BL  23001.63997062 -.00004099  00000-0 -25653-3 0  9995
2 44972  53.0533 127.7562 0001382  81.8454 278.2691 15.06389028165112
1 44972U 20001BL  23001.63997062 -.00004099  00000-0 -25653-3 0  9995
2 44972  53.0533 127.7562 0001382  81.8454 278.2691 15.06389028165112
1 44972U 20001BL  23001.83901648 -.00001882  00000-0 -10749-3 0  9999
2 44972  53.0544 126.8627 0001349  81.3624 278.7517 15.06393097165149
1 44972U 20001BL  23002.56881983  .00000686  00000-0  64935-4 0  9995
2 44972  53.0543 123.5866 0001362  81.0197 279.0946 15.06402037165251
1 44972U 20001BL  23002.63517160 -.00000012  00000-0  18112-4 0  9996
2 44972  53.0535 123.2881 0001332  79.1300 280.9838 15.06396379165260
1 44972U 20001BL  23002.83421601 -.00000534  00000-0 -16968-4 0  9999
2 44972  53.0539 122.3952 0001422  78.7138 281.4010 15.06392546165290
1 44972U 20001BL  23002.83421601 -.00000534  00000-0 -16968-4 0  9999
2 44972  53.0539 122.3952 0001422  78.7138 281.4010 15.06392546165290
1 44972U 20001BL  23003.56403870  .00001076  00000-0  91127-4 0  9998
2 44972  53.0542 119.1187 0001383  77.1443 282.9700 15.06383106165403
1 44972U 20001BL  23003.56403870  .00001076  00000-0  91127-4 0  9998
2 44972  53.0542 119.1187 0001383  77.1443 282.9700 15.06383106165403
1 44972U 20001BL  23004.55923558  .00000306  00000-0  39413-4 0  9993
2 44972  53.0542 114.6511 0001364  78.1344 281.9798 15.06398298165554
1 44972U 20001BL  23004.55923558  .00000306  00000-0  39413-4 0  9993
2 44972  53.0542 114.6511 0001364  78.1344 281.9798 15.06398298165554
1 44972U 20001BL  23005.28903382  .00002423  00000-0  18144-3 0  9996
2 44972  53.0553 111.3734 0001526  77.3631 282.7528 15.06413273165660
1 44972U 20001BL  23005.55441818  .00003143  00000-0  22969-3 0  9997
2 44972  53.0545 110.1827 0001342  75.8423 284.2715 15.06412975165707
1 44972U 20001BL  23006.28423111  .00002003  00000-0  15329-3 0  9990
2 44972  53.0544 106.9059 0001687  79.3959 280.7220 15.06410972165810
1 44972U 20001BL  23006.54962817 -.00002784  00000-0 -16814-3 0  9998
2 44972  53.0546 105.7156 0001341  59.1133 300.9988 15.06392223165852
1 44972U 20001BL  23007.27944078 -.00002690  00000-0 -16176-3 0  9995
2 44972  53.0535 102.4406 0001455  58.9550 301.1582 15.06397055165961
1 44972U 20001BL  23007.41213243 -.00001498  00000-0 -81665-4 0  9995
2 44972  53.0537 101.8423 0001530  69.3099 290.8054 15.06401930165981
1 44972U 20001BL  23007.54482798 -.00001547  00000-0 -84950-4 0  9997
2 44972  53.0530 101.2476 0001724  67.2061 292.9110 15.06400148166007
1 44972U 20001BL  23008.07561151 -.00000083  00000-0  13311-4 0  9993
2 44972  53.0537  98.8658 0001632  60.1944 299.9207 15.06387412166087
1 44972U 20001BL  23008.54004080  .00000863  00000-0  76836-4 0  9994
2 44972  53.0533  96.7806 0001738  60.8788 299.2374 15.06390007166155
1 44972U 20001BL  23008.60639090  .00001912  00000-0  14728-3 0  9993
2 44972  53.0534  96.4831 0001665  60.4281 299.6873 15.06385143166168
1 44972U 20001BL  23009.20351265  .00000467  00000-0  50296-4 0  9990
2 44972  53.0545  93.8031 0001713  63.0660 297.0504 15.06391781166255
1 44972U 20001BL  23009.33621074 -.00001464  00000-0 -79409-4 0  9999
2 44972  53.0542  93.2086 0002021  48.9063 311.2100 15.06387821166271
1 44972U 20001BL  23009.66794455 -.00000012  00000-0  18109-4 0  9996
2 44972  53.0543  91.7157 0001806  51.5752 308.5399 15.06390478166326
1 44972U 20001BL  23010.53045770  .00000751  00000-0  69314-4 0  9996
2 44972  53.0534  87.8461 0001840  54.1361 305.9799 15.06391807166459
1 44972U 20001BL  23010.59680463  .00001946  00000-0  14956-3 0  9994
2 44972  53.0534  87.5483 0001826  54.0443 306.0715 15.06392825166466
1 44972U 20001BL  23010.99487995  .00004250  00000-0  30402-3 0  9998
2 44972  53.0536  85.7616 0001804  53.9732 306.1424 15.06406633166529
1 44972U 20001BL  23011.45930847  .00004820  00000-0  34223-3 0  9997
2 44972  53.0532  83.6764 0001902  50.3899 309.7257 15.06406270166597
1 44972U 20001BL  23011.99008280  .00002226  00000-0  16830-3 0  9995
2 44972  53.0536  81.2932 0001888  49.8764 310.2390 15.06404132166678
1 44972U 20001BL  23012.45450375  .00005292  00000-0  37378-3 0  9999
2 44972  53.0533  79.2085 0002051  49.3508 310.7659 15.06415294166747
1 44972U 20001BL  23012.45450375  .00005292  00000-0  37378-3 0  9999
2 44972  53.0533  79.2085 0002051  49.3508 310.7659 15.06415294166747
1 44972U 20001BL  23012.98526426  .00007194  00000-0  50093-3 0  9990
2 44972  53.0533  76.8255 0002077  51.1259 308.9915 15.06431352166827
1 44972U 20001BL  23013.44969736 -.00003571  00000-0 -22094-3 0  9994
2 44972  53.0534  74.7396 0001926  63.8697 296.2490 15.06399882166894
1 44972U 20001BL  23013.44969736 -.00003571  00000-0 -22094-3 0  9994
2 44972  53.0534  74.7396 0001926  63.8697 296.2490 15.06399882166894
1 44972U 20001BL  23013.84778193 -.00001181  00000-0 -60408-4 0  9990
2 44972  53.0532  72.9516 0002050  63.2198 296.9001 15.06397948166958
1 44972U 20001BL  23014.44489630  .00004780  00000-0  33943-3 0  9991
2 44972  53.0536  70.2727 0002194  66.0998 294.0220 15.06416550167049
1 44972U 20001BL  23015.17471436  .00003184  00000-0  23257-3 0  9991
2 44972  53.0526  66.9973 0002466  76.2642 283.8621 15.06402095167156
1 44972U 20001BL  23015.50644494  .00003615  00000-0  26141-3 0  9998
2 44972  53.0539  65.5052 0002353  74.6852 285.4397 15.06406006167203
1 44972U 20001BL  23015.83817357  .00005140  00000-0  36360-3 0  9993
2 44972  53.0536  64.0157 0002367  79.6552 280.4703 15.06415165167254
1 44972U 20001BL  23015.83817357  .00005140  00000-0  36360-3 0  9993
2 44972  53.0536  64.0157 0002367  79.6552 280.4703 15.06415165167254
1 44972U 20001BL  23016.50164835 -.00003096  00000-0 -18904-3 0  9998
2 44972  53.0547  61.0397 0002443  73.6187 286.5071 15.06392220167354
1 44972U 20001BL  23016.83338786 -.00005287  00000-0 -33643-3 0  9993
2 44972  53.0544  59.5492 0002252  82.8387 277.2858 15.06384693167402
1 44972U 20001BL  23017.09879497  .00010401  00000-0  71704-3 0  9993
2 44972  53.0543  58.3570 0002472  88.3815 271.7457 15.06350728167446
1 44972U 20001BL  23017.36416887 -.00002554  00000-0 -15269-3 0  9999
2 44972  53.0542  57.1667 0002126  87.9249 272.1984 15.06382432167482
1 44972U 20001BL  23017.36416887 -.00002554  00000-0 -15269-3 0  9999
2 44972  53.0542  57.1667 0002126  87.9249 272.1984 15.06382432167482
1 44972U 20001BL  23018.35938518  .00001969  00000-0  15112-3 0  9993
2 44972  53.0543  52.6991 0002029  87.3252 272.7969 15.06379199167635
1 44972U 20001BL  23018.82381702  .00003423  00000-0  24868-3 0  9997
2 44972  53.0541  50.6140 0002007  90.1298 269.9921 15.06384530167704
1 44972U 20001BL  23018.82381702  .00003423  00000-0  24868-3 0  9997
2 44972  53.0541  50.6140 0002007  90.1298 269.9921 15.06384530167704
1 44972U 20001BL  23019.15555984  .00002592  00000-0  19298-3 0  9996
2 44972  53.0541  49.1252 0001951  89.5138 270.6074 15.06377538167756
1 44972U 20001BL  23019.48729915  .00001640  00000-0  12908-3 0  9993
2 44972  53.0543  47.6361 0001933  90.2597 269.8613 15.06376524167809
1 44972U 20001BL  23020.34981256  .00003031  00000-0  22238-3 0  9991
2 44972  53.0544  43.7641 0001871  91.0925 269.0278 15.06387287167934
1 44972U 20001BL  23020.34981256  .00003031  00000-0  22238-3 0  9991
2 44972  53.0544  43.7641 0001871  91.0925 269.0278 15.06387287167934
1 44972U 20001BL  23021.41136462  .00003794  00000-0  27350-3 0  9997
2 44972  53.0542  38.9985 0001866  92.9437 267.1765 15.06396045168091
1 44972U 20001BL  23022.40656977  .00000885  00000-0  78335-4 0  9993
2 44972  53.0541  34.5307 0001846  96.0791 264.0408 15.06394296168249
1 44972U 20001BL  23024.19793480  .00001409  00000-0  11348-3 0  9995
2 44972  53.0546  26.4873 0001934 100.2319 259.8888 15.06398905168519
1 44972U 20001BL  23025.12677463 -.00011485  00000-0 -75238-3 0  9996
2 44972  53.0551  22.3177 0002225  87.2092 272.9152 15.06445970168653
1 44972U 20001BL  23025.39218020 -.00000219  00000-0  41889-5 0  9994
2 44972  53.0551  21.1267 0001890  98.1096 262.0108 15.06399020168691
1 44972U 20001BL  23025.39218020 -.00000219  00000-0  41889-5 0  9994
2 44972  53.0551  21.1267 0001890  98.1096 262.0108 15.06399020168691
1 44972U 20001BL  23026.38737397 -.00004687  00000-0 -29578-3 0  9990
2 44972  53.0553  16.6604 0001666  94.5231 265.5948 15.06419098168844
1 44972U 20001BL  23026.38737397 -.00004687  00000-0 -29578-3 0  9990
2 44972  53.0553  16.6604 0001666  94.5231 265.5948 15.06419098168844
1 44972U 20001BL  23026.98450364  .00001017  00000-0  87179-4 0  9996
2 44972  53.0554  13.9800 0001781  94.7542 265.3651 15.06395705168935
1 44972U 20001BL  23027.31624042 -.00000126  00000-0  10454-4 0  9993
2 44972  53.0564  12.4900 0002017 102.1143 258.0072 15.06396926168982
1 44972U 20001BL  23028.24509703  .00000085  00000-0  24592-4 0  9993
2 44972  53.0556   8.3199 0001769  95.6158 264.5033 15.06398904169126
1 44972U 20001BL  23028.31144156  .00000381  00000-0  44471-4 0  9995
2 44972  53.0553   8.0215 0001766  95.0661 265.0530 15.06401239169134
1 44972U 20001BL  23028.90856303  .00000838  00000-0  75167-4 0  9997
2 44972  53.0552   5.3405 0001905  96.3693 263.7513 15.06399885169227
1 44972U 20001BL  23029.24028784 -.00012490  00000-0 -81993-3 0  9991
2 44972  53.0554   3.8514 0001457  98.3557 261.7597 15.06451102169272
1 44972U 20001BL  23029.30665225  .00002295  00000-0  17296-3 0  9990
2 44972  53.0555   3.5537 0001890  93.7701 266.3504 15.06385832169282
1 44972U 20001BL  23029.30665225  .00002295  00000-0  17296-3 0  9990
2 44972  53.0555   3.5537 0001890  93.7701 266.3504 15.06385832169282
1 44972U 20001BL  23030.30184908  .00000375  00000-0  44111-4 0  9990
2 44972  53.0552 359.0867 0001850  94.4167 265.7034 15.06400539169434
1 44972U 20001BL  23030.30184908  .00000375  00000-0  44111-4 0  9990
2 44972  53.0552 359.0867 0001850  94.4167 265.7034 15.06400539169434
1 44972U 20001BL  23030.89897208  .00000737  00000-0  68355-4 0  9996
2 44972  53.0552 356.4059 0001814  95.8717 264.2479 15.06395827169524
1 44972U 20001BL  23031.29705129  .00000915  00000-0  80344-4 0  9991
2 44972  53.0550 354.6190 0001801  95.7937 264.3258 15.06398423169584
